GSAT0215 (GALILEO 19)   
1 43055U 17079A   26091.17332787 -.00000025  00000+0  00000+0 0  9993
2 43055  55.0990 223.6238 0000651 282.3650  77.5667  1.70474678 51672
GSAT0216 (GALILEO 20)   
1 43056U 17079B   26089.11820655 -.00000029  00000+0  00000+0 0  9995
2 43056  55.0996 223.6803 0001990 299.0743  60.8437  1.70474746 51656
GSAT0217 (GALILEO 21)   
1 43057U 17079C   26090.51213220 -.00000028  00000+0  00000+0 0  9995
2 43057  55.0982 223.6399 0001852 332.6198  27.3079  1.70474684 51669
GSAT0218 (GALILEO 22)   
1 43058U 17079D   26090.73218300 -.00000027  00000+0  00000+0 0  9993
2 43058  55.0981 223.6315 0002435 286.1215  73.7895  1.70474692 51691
GSAT0221 (GALILEO 25)   
1 43564U 18060A   26090.04924982 -.00000099  00000+0  00000+0 0  9999
2 43564  57.1934 343.8925 0004721 315.0021  45.0002  1.70475638 47837
GSAT0222 (GALILEO 26)   
1 43565U 18060B   26089.68227263 -.00000099  00000+0  00000+0 0  9996
2 43565  57.1979 343.9056 0000883 305.9782  54.0531  1.70474417 47875
GSAT0219 (GALILEO 23)   
1 43566U 18060C   26091.07639624 -.00000099  00000+0  00000+0 0  9991
2 43566  57.1965 343.8697 0003646 334.2622  25.7627  1.70475311 47874
GSAT0220 (GALILEO 24)   
1 43567U 18060D   26089.53754858 -.00000099  00000+0  00000+0 0  9997
2 43567  57.1962 343.9110 0004630 318.0225  41.9812  1.70475558 47831
GSAT0223 (GALILEO 27)   
1 49809U 21116A   26085.57513177 -.00000095  00000+0  00000+0 0  9991
2 49809  57.1864 343.9082 0001802 284.7150 254.2688  1.70475251 26779
GSAT0224 (GALILEO 28)   
1 49810U 21116B   26089.50166478 -.00000099  00000+0  00000+0 0  9992
2 49810  57.1872 343.8008 0001115 353.6730 187.7063  1.70475612 26862
GSAT0225 (GALILEO 29)   
1 59598U 24079A   26087.07569868  .00000039  00000+0  00000+0 0  9990
2 59598  55.0678 103.3445 0002740 270.8462 214.7370  1.70474547 11938
GSAT0227 (GALILEO 30)   
1 59600U 24079C   26091.16061586  .00000036  00000+0  00000+0 0  9990
2 59600  55.0646 103.2292 0000742   8.6243 351.4227  1.70474649 12057
GSAT0232 (GALILEO 32)   
1 61182U 24167A   26089.34641450 -.00000030  00000+0  00000+0 0  9992
2 61182  55.2125 223.4742 0004030 205.9815 336.1496  1.70474335  9534
GSAT0226 (GALILEO 31)   
1 61183U 24167B   26089.49910161 -.00000030  00000+0  00000+0 0  9997
2 61183  55.2093 223.4772 0001508 160.3116 206.8737  1.70474291  9517
GSAT0233 (GALILEO 33)   
1 67160U 25302A   26091.38740751  .00000034  00000+0  00000+0 0  9990
2 67160  54.2843 104.3167 0002460 236.0205 306.5021  1.70474797  1813
GSAT0234 (GALILEO 34)   
1 67162U 25302C   26089.92335066  .00000038  00000+0  00000+0 0  9992
2 67162  54.2854 104.3575 0003869 286.9900 257.1082  1.70474726  1843
